[{"OBJECT_NAME":"GEESAT-3 04","OBJECT_ID":"2024-159D","EPOCH":"2026-03-09T22:19:33.498048","MEAN_MOTION":14.82863274,"ECCENTRICITY":0.00023149,"INCLINATION":49.9968,"RA_OF_ASC_NODE":93.6618,"ARG_OF_PERICENTER":46.406,"MEAN_ANOMALY":313.707,"EPHEMERIS_TYPE":0,"CLASSIFICATION_TYPE":"U","NORAD_CAT_ID":61014,"ELEMENT_SET_NO":999,"REV_AT_EPOCH":8327,"BSTAR":0.00041507261,"MEAN_MOTION_DOT":3.175e-5,"MEAN_MOTION_DDOT":0},{"OBJECT_NAME":"COSMOS 2251 DEB","OBJECT_ID":"1993-036BPB","EPOCH":"2026-03-07T14:40:08.259744","MEAN_MOTION":14.83918046,"ECCENTRICITY":0.0006266,"INCLINATION":74.0191,"RA_OF_ASC_NODE":290.0736,"ARG_OF_PERICENTER":270.7521,"MEAN_ANOMALY":89.2939,"EPHEMERIS_TYPE":0,"CLASSIFICATION_TYPE":"U","NORAD_CAT_ID":37546,"ELEMENT_SET_NO":999,"REV_AT_EPOCH":67145,"BSTAR":0.0022663,"MEAN_MOTION_DOT":0.00018858,"MEAN_MOTION_DDOT":0}]
